COMMENT,ORIGINATOR,NORAD_CAT_ID,OBJECT_NAME,OBJECT_TYPE,CLASSIFICATION_TYPE,INTLDES,EPOCH,EPOCH_MICROSECONDS,MEAN_MOTION,ECCENTRICITY,INCLINATION,RA_OF_ASC_NODE,ARG_OF_PERICENTER,MEAN_ANOMALY,EPHEMERIS_TYPE,ELEMENT_SET_NO,REV_AT_EPOCH,BSTAR,MEAN_MOTION_DOT,MEAN_MOTION_DDOT,FILE,TLE_LINE0,TLE_LINE1,TLE_LINE2,OBJECT_ID,OBJECT_NUMBER,SEMIMAJOR_AXIS,PERIOD,APOGEE,PERIGEE,DECAYED
GENERATED VIA SPACETRACK.ORG API,18 SPCS,44336,ARIANE 5 DEB (SYLDA),DEBRIS,U,19034D,2023-12-09 03:06:09,659808,3.28582345,0.6517261,5.9575,316.0319,15.6111,357.4635,0,999,4390,0.0064325,0.00024484,0,4129303,0 ARIANE 5 DEB (SYLDA),1 44336U 19034D   23343.12927847  .00024484  00000-0  64325-2 0  9996,2 44336   5.9575 316.0319 6517261  15.6111 357.4635  3.28582345 43908,2019-034D,44336,19111.98,438.246,25189.622,278.069,0
GENERATED VIA SPACETRACK.ORG API,18 SPCS,44336,ARIANE 5 DEB (SYLDA),DEBRIS,U,19034D,2023-12-09 10:24:19,15488,3.28597409,0.6517187,5.9567,315.8339,16.0029,357.3984,0,999,4393,0.0064348,0.00024527,0,4130247,0 ARIANE 5 DEB (SYLDA),1 44336U 19034D   23343.43355342  .00024527  00000-0  64348-2 0  9998,2 44336   5.9567 315.8339 6517187  16.0029 357.3984  3.28597409 43934,2019-034D,44336,19111.396,438.226,25188.516,278.007,0
GENERATED VIA SPACETRACK.ORG API,18 SPCS,44336,ARIANE 5 DEB (SYLDA),DEBRIS,U,19034D,2023-12-09 17:42:27,144288,3.28612657,0.6517102,5.9561,315.6367,16.3921,357.3329,0,999,4394,0.0064213,0.00024499,0,4130742,0 ARIANE 5 DEB (SYLDA),1 44336U 19034D   23343.73781417  .00024499  00000-0  64213-2 0  9996,2 44336   5.9561 315.6367 6517102  16.3921 357.3329  3.28612657 43945,2019-034D,44336,19110.805,438.206,25187.377,277.963,0
GENERATED VIA SPACETRACK.ORG API,18 SPCS,44336,ARIANE 5 DEB (SYLDA),DEBRIS,U,19034D,2023-12-10 08:18:39,992544,3.28641267,0.6516975,5.9545,315.2416,17.172,357.2011,0,999,4396,0.0059494,0.00022769,0,4131684,0 ARIANE 5 DEB (SYLDA),1 44336U 19034D   23344.34629621  .00022769  00000-0  59494-2 0  9995,2 44336   5.9545 315.2416 6516975  17.1720 357.2011  3.28641267 43969,2019-034D,44336,19109.696,438.168,25185.302,277.82,0
GENERATED VIA SPACETRACK.ORG API,18 SPCS,44336,ARIANE 5 DEB (SYLDA),DEBRIS,U,19034D,2023-12-10 15:36:44,576352,3.28656484,0.651684,5.9542,315.0451,17.5602,357.1345,0,999,4397,0.0060839,0.00023258,0,4132333,0 ARIANE 5 DEB (SYLDA),1 44336U 19034D   23344.65051593  .00023258  00000-0  60839-2 0  9995,2 44336   5.9542 315.0451 6516840  17.5602 357.1345  3.28656484 43974,2019-034D,44336,19109.106,438.147,25184.07,277.872,0
GENERATED VIA SPACETRACK.ORG API,18 SPCS,44336,ARIANE 5 DEB (SYLDA),DEBRIS,U,19034D,2023-12-11 06:12:50,195520,3.28686094,0.6516696,5.9529,314.6495,18.3412,357.0008,0,999,4397,0.0059668,0.00022852,0,4132882,0 ARIANE 5 DEB (SYLDA),1 44336U 19034D   23345.25891430  .00022852  00000-0  59668-2 0  9991,2 44336   5.9529 314.6495 6516696  18.3412 357.0008  3.28686094 43974,2019-034D,44336,19107.958,438.108,25181.899,277.748,0
GENERATED VIA SPACETRACK.ORG API,18 SPCS,44336,ARIANE 5 DEB (SYLDA),DEBRIS,U,19034D,2023-12-11 06:12:50,195520,3.28686094,0.6516696,5.9529,314.6495,18.3412,357.0008,0,999,4399,0.0059668,0.00022852,0,4133233,0 ARIANE 5 DEB (SYLDA),1 44336U 19034D   23345.25891430  .00022852  00000-0  59668-2 0  9991,2 44336   5.9529 314.6495 6516696  18.3412 357.0008  3.28686094 43996,2019-034D,44336,19107.958,438.108,25181.899,277.748,0
GENERATED VIA SPACETRACK.ORG API,18 SPCS,44336,ARIANE 5 DEB (SYLDA),DEBRIS,U,19034D,2023-12-11 13:30:51,181632,3.2870015,0.65166,5.9522,314.4503,18.7326,356.9334,0,999,4400,0.0062928,0.00024089,0,4133725,0 ARIANE 5 DEB (SYLDA),1 44336U 19034D   23345.56309238  .00024089  00000-0  62928-2 0  9992,2 44336   5.9522 314.4503 6516600  18.7326 356.9334  3.28700150 44003,2019-034D,44336,19107.414,438.089,25180.816,277.741,0
GENERATED VIA SPACETRACK.ORG API,18 SPCS,44336,ARIANE 5 DEB (SYLDA),DEBRIS,U,19034D,2023-12-12 11:24:46,992096,3.28745095,0.6516398,5.9503,313.8552,19.9034,356.7301,0,999,4403,0.0067577,0.00025927,0,4134660,0 ARIANE 5 DEB (SYLDA),1 44336U 19034D   23346.47554389  .00025927  00000-0  67577-2 0  9999,2 44336   5.9503 313.8552 6516398  19.9034 356.7301  3.28745095 44034,2019-034D,44336,19105.672,438.029,25177.553,277.521,0
GENERATED VIA SPACETRACK.ORG API,18 SPCS,44336,ARIANE 5 DEB (SYLDA),DEBRIS,U,19034D,2023-12-12 18:42:43,367904,3.28759199,0.6516342,5.9498,313.657,20.2941,356.6622,0,999,4404,0.0069848,0.00026821,0,4134943,0 ARIANE 5 DEB (SYLDA),1 44336U 19034D   23346.77966861  .00026821  00000-0  69848-2 0  9991,2 44336   5.9498 313.6570 6516342  20.2941 356.6622  3.28759199 44042,2019-034D,44336,19105.126,438.011,25176.544,277.437,0
GENERATED VIA SPACETRACK.ORG API,18 SPCS,44336,ARIANE 5 DEB (SYLDA),DEBRIS,U,19034D,2023-12-13 09:18:32,121792,3.28791568,0.6516223,5.9483,313.2602,21.0758,356.526,0,999,4404,0.0062149,0.00023929,0,4135241,0 ARIANE 5 DEB (SYLDA),1 44336U 19034D   23347.38787178  .00023929  00000-0  62149-2 0  9994,2 44336   5.9483 313.2602 6516223  21.0758 356.5260  3.28791568 44044,2019-034D,44336,19103.872,437.967,25174.246,277.228,0
GENERATED VIA SPACETRACK.ORG API,18 SPCS,44336,ARIANE 5 DEB (SYLDA),DEBRIS,U,19034D,2023-12-13 09:18:32,178816,3.28791802,0.6516206,5.948,313.2603,21.0771,356.526,0,999,4406,0.0072049,0.00027723,0,4135433,0 ARIANE 5 DEB (SYLDA),1 44336U 19034D   23347.38787244  .00027723  00000-0  72049-2 0  9994,2 44336   5.9480 313.2603 6516206  21.0771 356.5260  3.28791802 44061,2019-034D,44336,19103.863,437.967,25174.198,277.257,0
GENERATED VIA SPACETRACK.ORG API,18 SPCS,44336,ARIANE 5 DEB (SYLDA),DEBRIS,U,19034D,2023-12-13 16:36:24,676992,3.28806642,0.651617,5.9473,313.061,21.4687,356.4579,0,999,4407,0.0071468,0.00027549,0,4135688,0 ARIANE 5 DEB (SYLDA),1 44336U 19034D   23347.69195228  .00027549  00000-0  71468-2 0  9993,2 44336   5.9473 313.0610 6516170  21.4687 356.4579  3.28806642 44071,2019-034D,44336,19103.288,437.947,25173.18,277.126,0
GENERATED VIA SPACETRACK.ORG API,18 SPCS,44336,ARIANE 5 DEB (SYLDA),DEBRIS,U,19034D,2023-12-13 23:54:15,805728,3.28824755,0.6516056,5.9469,312.8641,21.8568,356.3898,0,999,4406,0.0073142,0.00028194,0,4135753,0 ARIANE 5 DEB (SYLDA),1 44336U 19034D   23347.99601627  .00028194  00000-0  73142-2 0  9999,2 44336   5.9469 312.8641 6516056  21.8568 356.3898  3.28824755 44069,2019-034D,44336,19102.586,437.923,25171.804,277.099,0
GENERATED VIA SPACETRACK.ORG API,18 SPCS,44336,ARIANE 5 DEB (SYLDA),DEBRIS,U,19034D,2023-12-14 07:12:05,573664,3.28843021,0.6515971,5.9463,312.665,22.2488,356.3216,0,999,4409,0.0077713,0.00029988,0,4136178,0 ARIANE 5 DEB (SYLDA),1 44336U 19034D   23348.30006451  .00029988  00000-0  77713-2 0  9999,2 44336   5.9463 312.6650 6515971  22.2488 356.3216  3.28843021 44096,2019-034D,44336,19101.879,437.899,25170.473,277.015,0
GENERATED VIA SPACETRACK.ORG API,18 SPCS,44336,ARIANE 5 DEB (SYLDA),DEBRIS,U,19034D,2023-12-14 14:29:53,820096,3.28861035,0.6515884,5.9456,312.4658,22.6409,356.2534,0,999,4410,0.006719,0.00025946,0,4136513,0 ARIANE 5 DEB (SYLDA),1 44336U 19034D   23348.60409514  .00025946  00000-0  67190-2 0  9997,2 44336   5.9456 312.4658 6515884  22.6409 356.2534  3.28861035 44103,2019-034D,44336,19101.181,437.875,25169.155,276.938,0
GENERATED VIA SPACETRACK.ORG API,18 SPCS,44336,ARIANE 5 DEB (SYLDA),DEBRIS,U,19034D,2023-12-15 05:05:25,780416,3.2890082,0.6515695,5.9442,312.0679,23.4239,356.1175,0,999,4412,0.0058655,0.00022696,0,4137031,0 ARIANE 5 DEB (SYLDA),1 44336U 19034D   23349.21210394  .00022696  00000-0  58655-2 0  9996,2 44336   5.9442 312.0679 6515695  23.4239 356.1175  3.28900820 44125,2019-034D,44336,19099.641,437.822,25166.25,276.762,0
GENERATED VIA SPACETRACK.ORG API,18 SPCS,44336,ARIANE 5 DEB (SYLDA),DEBRIS,U,19034D,2023-12-15 12:23:09,623904,3.28918047,0.651559,5.9437,311.8681,23.8167,356.0494,0,999,4411,0.0068422,0.00026494,0,4137073,0 ARIANE 5 DEB (SYLDA),1 44336U 19034D   23349.51608361  .00026494  00000-0  68422-2 0  9997,2 44336   5.9437 311.8681 6515590  23.8167 356.0494  3.28918047 44119,2019-034D,44336,19098.974,437.799,25164.948,276.731,0
GENERATED VIA SPACETRACK.ORG API,18 SPCS,44336,ARIANE 5 DEB (SYLDA),DEBRIS,U,19034D,2023-12-15 19:40:51,716928,3.28938423,0.6515455,5.9432,311.6697,24.2058,355.9817,0,999,4414,0.0069587,0.00026951,0,4137270,0 ARIANE 5 DEB (SYLDA),1 44336U 19034D   23349.82004302  .00026951  00000-0  69587-2 0  9997,2 44336   5.9432 311.6697 6515455  24.2058 355.9817  3.28938423 44143,2019-034D,44336,19098.185,437.772,25163.387,276.714,0
GENERATED VIA SPACETRACK.ORG API,18 SPCS,44336,ARIANE 5 DEB (SYLDA),DEBRIS,U,19034D,2023-12-16 02:58:32,627136,3.28955602,0.6515356,5.9425,311.4705,24.5991,355.914,0,999,4413,0.0085733,0.00033247,0,4137595,0 ARIANE 5 DEB (SYLDA),1 44336U 19034D   23350.12398874  .00033247  00000-0  85733-2 0  9999,2 44336   5.9425 311.4705 6515356  24.5991 355.9140  3.28955602 44138,2019-034D,44336,19097.52,437.749,25162.1,276.671,0
GENERATED VIA SPACETRACK.ORG API,18 SPCS,44336,ARIANE 5 DEB (SYLDA),DEBRIS,U,19034D,2023-12-16 10:16:11,802432,3.28973228,0.6515244,5.9419,311.2715,24.9903,355.8465,0,999,4416,0.0076772,0.00029776,0,4137834,0 ARIANE 5 DEB (SYLDA),1 44336U 19034D   23350.42791438  .00029776  00000-0  76772-2 0  9990,2 44336   5.9419 311.2715 6515244  24.9903 355.8465  3.28973228 44169,2019-034D,44336,19096.838,437.726,25160.759,276.647,0
GENERATED VIA SPACETRACK.ORG API,18 SPCS,44336,ARIANE 5 DEB (SYLDA),DEBRIS,U,19034D,2023-12-16 17:33:49,601376,3.28993385,0.6515142,5.9413,311.0729,25.3802,355.7792,0,999,4417,0.007856,0.00030516,0,4138106,0 ARIANE 5 DEB (SYLDA),1 44336U 19034D   23350.73182409  .00030516  00000-0  78560-2 0  9997,2 44336   5.9413 311.0729 6515142  25.3802 355.7792  3.28993385 44175,2019-034D,44336,19096.058,437.699,25159.276,276.57,0
